H1 CPF  1  DLR 2022 12 16 13  8502 technosat            
H2  1704205 6203    42829 2022 12 16 00 00 00 2022 12 23 00 00 00    60 1 1  0 0 0
H9
10 0 59933      0.000000  0       1649321.763      -2319184.258       6342381.622
10 0 59933     60.000000  0       1745545.646      -2725490.802       6152742.651
10 0 59933    120.000000  0       1830872.685      -3121053.746       5936869.589
10 0 59933    180.000000  0       1905042.568      -3504100.663       5695680.060
10 0 59933    240.000000  0       1967857.459      -3872909.914       5430200.026
10 0 59933    300.000000  0       2019182.391      -4225818.547       5141559.499
10 0 59933    360.000000  0       2058945.373      -4561230.009       4830987.857
10 0 59933    420.000000  0       2087137.175      -4877621.662       4499808.725
10 0 59933    480.000000  0       2103810.813      -5173552.057       4149434.347
10 0 59933    540.000000  0       2109080.640      -5447667.810       3781359.449
10 0 59933    600.000000  0       2103121.049      -5698710.041       3397154.773
10 0 59933    660.000000  0       2086164.876      -5925520.413       2998460.250
10 0 59933    720.000000  0       2058501.532      -6127046.707       2586977.847
10 0 59933    780.000000  0       2020474.852      -6302347.870       2164464.097
10 0 59933    840.000000  0       1972480.670      -6450598.553       1732722.441
10 0 59933    900.000000  0       1914964.114      -6571093.226       1293595.316
10 0 59933    960.000000  0       1848416.566      -6663249.602        848955.957
10 0 59933   1020.000000  0       1773372.425      -6726611.467        400700.203
10 0 59933   1080.000000  0       1690405.709      -6760851.073        -49261.887
10 0 59933   1140.000000  0       1600126.375      -6765770.803       -499014.642
10 0 59933   1200.000000  0       1503176.420      -6741303.974       -946645.345
10 0 59933   1260.000000  0       1400225.886      -6687514.968      -1390252.579
10 0 59933   1320.000000  0       1291968.748      -6604598.934      -1827954.437
10 0 59933   1380.000000  0       1179118.636      -6492880.808      -2257896.756
10 0 59933   1440.000000  0       1062404.612      -6352813.583      -2678261.102
10 0 59933   1500.000000  0        942566.957      -6184976.060      -3087272.505
10 0 59933   1560.000000  0        820352.883      -5990070.053      -3483206.940
10 0 59933   1620.000000  0        696512.237      -5768917.018      -3864398.573
10 0 59933   1680.000000  0        571793.247      -5522454.121      -4229246.647
10 0 59933   1740.000000  0        446938.328      -5251729.808      -4576221.998
10 0 59933   1800.000000  0        322680.002      -4957898.937      -4903873.192
10 0 59933   1860.000000  0        199736.920      -4642217.497      -5210832.293
10 0 59933   1920.000000  0         78810.017      -4306036.905      -5495820.272
10 0 59933   1980.000000  0        -39421.198      -3950797.898      -5757651.950
10 0 59933   2040.000000  0       -154302.165      -3578024.124      -5995240.507
10 0 59933   2100.000000  0       -265206.620      -3189315.439      -6207601.567
10 0 59933   2160.000000  0       -371539.751      -2786340.934      -6393856.867
10 0 59933   2220.000000  0       -472741.158      -2370831.716      -6553237.463
10 0 59933   2280.000000  0       -568287.587      -1944573.499      -6685086.481
10 0 59933   2340.000000  0       -657695.438      -1509399.059      -6788861.473
10 0 59933   2400.000000  0       -740523.052      -1067180.495      -6864136.378
10 0 59933   2460.000000  0       -816372.736       -619821.336      -6910603.019
10 0 59933   2520.000000  0       -884892.553       -169248.545      -6928072.114
10 0 59933   2580.000000  0       -945777.865        282595.460      -6916473.838
10 0 59933   2640.000000  0       -998772.632        733760.835      -6875858.081
10 0 59933   2700.000000  0      -1043670.440       1182298.477      -6806394.267
10 0 59933   2760.000000  0      -1080315.279       1626268.148      -6708370.635
10 0 59933   2820.000000  0      -1108602.062       2063746.511      -6582193.203
10 0 59933   2880.000000  0      -1128476.860       2492835.213      -6428384.358
10 0 59933   2940.000000  0      -1139936.888       2911668.952      -6247581.010
10 0 59933   3000.000000  0      -1143030.256       3318423.474      -6040532.240
10 0 59933   3060.000000  0      -1137855.416       3711323.379      -5808096.503
10 0 59933   3120.000000  0      -1124560.339       4088649.793      -5551238.485
10 0 59933   3180.000000  0      -1103341.461       4448747.926      -5271025.526
10 0 59933   3240.000000  0      -1074442.375       4790034.436      -4968623.585
10 0 59933   3300.000000  0      -1038152.261       5111004.546      -4645292.755
10 0 59933   3360.000000  0       -994804.072       5410238.879      -4302382.365
10 0 59933   3420.000000  0       -944772.463       5686409.966      -3941325.669
10 0 59933   3480.000000  0       -888471.483       5938288.404      -3563634.159
10 0 59933   3540.000000  0       -826352.056       6164748.628      -3170891.529
10 0 59933   3600.000000  0       -758899.230       6364774.339      -2764747.302
10 0 59933   3660.000000  0       -686629.224       6537463.473      -2346910.029
10 0 59933   3720.000000  0       -610086.304       6682032.642      -1919140.192
10 0 59933   3780.000000  0       -529839.510       6797821.057      -1483242.853
10 0 59933   3840.000000  0       -446479.181       6884293.946      -1041060.054
10 0 59933   3900.000000  0       -360613.348       6941045.406       -594462.973
10 0 59933   3960.000000  0       -272864.013       6967800.631       -145343.889
10 0 59933   4020.000000  0       -183863.353       6964417.565        304391.997
10 0 59933   4080.000000  0        -94249.837       6930887.896        752834.892
10 0 59933   4140.000000  0         -4664.326       6867337.362       1198078.799
10 0 59933   4200.000000  0         84253.822       6774025.370       1638229.902
10 0 59933   4260.000000  0        171870.647       6651343.937       2071414.863
10 0 59933   4320.000000  0        257561.471       6499816.019       2495788.985
10 0 59933   4380.000000  0        340714.686       6320093.267       2909544.248
10 0 59933   4440.000000  0        420735.459       6112953.167       3310917.293
10 0 59933   4500.000000  0        497049.428       5879295.478       3698197.031
10 0 59933   4560.000000  0        569106.281       5620138.460       4069732.077
10 0 59933   4620.000000  0        636383.087       5336614.282       4423938.337
10 0 59933   4680.000000  0        698387.494       5029963.417       4759306.004
10 0 59933   4740.000000  0        754660.692       4701528.754       5074405.679
10 0 59933   4800.000000  0        804780.233       4352749.714       5367894.399
10 0 59933   4860.000000  0        848362.732       3985155.743       5638521.412
10 0 59933   4920.000000  0        885066.262       3600359.371       5885133.521
10 0 59933   4980.000000  0        914592.451       3200048.885       6106679.961
10 0 59933   5040.000000  0        936688.350       2785980.701       6302216.789
10 0 59933   5100.000000  0        951148.050       2359971.496       6470910.821
10 0 59933   5160.000000  0        957814.038       1923890.076       6612043.135
10 0 59933   5220.000000  0        956578.272       1479648.971       6725012.049
10 0 59933   5280.000000  0        947382.984       1029195.930       6809335.545
10 0 59933   5340.000000  0        930221.191        574505.324       6864653.222
10 0 59933   5400.000000  0        905136.935        117569.502       6890727.820
10 0 59933   5460.000000  0        872225.219       -339610.011       6887446.328
10 0 59933   5520.000000  0        831631.637       -795031.437       6854820.515
10 0 59933   5580.000000  0        783551.759      -1246701.604       6792986.874
10 0 59933   5640.000000  0        728230.178      -1692644.743       6702206.123
10 0 59933   5700.000000  0        665959.293      -2130911.239       6582862.191
10 0 59933   5760.000000  0        597077.842      -2559586.319       6435460.752
10 0 59933   5820.000000  0        521969.095      -2976798.684       6260627.090
10 0 59933   5880.000000  0        441058.830      -3380728.739       6059103.382
10 0 59933   5940.000000  0        354813.086      -3769616.610       5831745.699
10 0 59933   6000.000000  0        263735.652      -4141769.997       5579520.505
10 0 59933   6060.000000  0        168365.350      -4495571.707       5303500.674
10 0 59933   6120.000000  0         69273.108      -4829486.922       5004861.136
10 0 59933   6180.000000  0        -32941.210      -5142070.249       4684874.023
10 0 59933   6240.000000  0       -137652.192      -5431972.370       4344903.244
10 0 59933   6300.000000  0       -244212.438      -5697946.174       3986398.604
10 0 59933   6360.000000  0       -351956.296      -5938852.396       3610889.584
10 0 59933   6420.000000  0       -460203.701      -6153664.817       3219978.743
10 0 59933   6480.000000  0       -568264.138      -6341474.938       2815334.709
10 0 59933   6540.000000  0       -675440.655      -6501495.994       2398684.831
10 0 59933   6600.000000  0       -781033.913      -6633066.378       1971807.681
10 0 59933   6660.000000  0       -884346.341      -6735652.690       1536525.330
10 0 59933   6720.000000  0       -984686.367      -6808852.121       1094695.174
10 0 59933   6780.000000  0      -1081372.580      -6852393.990        648201.639
10 0 59933   6840.000000  0      -1173737.809      -6866140.667        198947.825
10 0 59933   6900.000000  0      -1261133.138      -6850087.854       -251152.929
10 0 59933   6960.000000  0      -1342931.821      -6804364.187       -700185.487
10 0 59933   7020.000000  0      -1418533.076      -6729230.209      -1146241.332
10 0 59933   7080.000000  0      -1487365.744      -6625076.707      -1587426.896
10 0 59933   7140.000000  0      -1548891.799      -6492422.440      -2021871.794
99
